ONEWEB-0053             
1 45157U 20008AC  26183.85324527 -.00000182  00000+0 -55885-3 0  9994
2 45157  87.8817  33.1624 0001764  69.9226 290.2091 13.10374888309967
ONEWEB-0054             
1 45158U 20008AD  26183.81257662  .00000425  00000+0  11800-2 0  9992
2 45158  87.8825  33.1550 0001880  85.0386 275.0956 13.10372281310070
ONEWEB-0056             
1 45159U 20008AE  26183.55447227  .00000087  00000+0  21296-3 0  9997
2 45159  87.8829  33.1997 0002073  86.2529 273.8835 13.10374396310191
ONEWEB-0057             
1 45160U 20008AF  26183.87716294  .00000812  00000+0  22901-2 0  9996
2 45160  87.8823  33.1473 0001881  68.9647 291.1681 13.10372673310402
ONEWEB-0058             
1 45161U 20008AG  26183.86396035  .00000237  00000+0  64233-3 0  9999
2 45161  87.8819  33.1549 0001704  92.1622 267.9700 13.10376883310475
ONEWEB-0059             
1 45162U 20008AH  26183.86019343  .00000085  00000+0  20767-3 0  9999
2 45162  87.8819  33.1548 0001625  78.9752 281.1558 13.10372971310375
ONEWEB-0062             
1 45163U 20008AJ  26183.80732898  .00000620  00000+0  17383-2 0  9995
2 45163  87.8825  33.1539 0001861  96.0089 264.1251 13.10372714310230
ONEWEB-0065             
1 45164U 20008AK  26183.84124953 -.00000589  00000+0 -17224-2 0  9997
2 45164  87.8823  33.1552 0001994  77.4142 282.7208 13.10374464309931
ONEWEB-0066             
1 45424U 20020A   26183.78752764 -.00000289  00000+0 -85225-3 0  9994
2 45424  87.8873  17.9646 0001656  88.6616 271.4702 13.11415050304728
ONEWEB-0067             
1 45425U 20020B   26183.82532838  .00000322  00000+0  87398-3 0  9997
2 45425  87.8901  17.8819 0001827  82.3584 277.7751 13.11426121304787
ONEWEB-0080             
1 45426U 20020C   26183.82498067  .00000323  00000+0  87491-3 0  9998
2 45426  87.8891  17.9551 0001868  97.9433 262.1907 13.11417636304759
ONEWEB-0090             
1 45427U 20020D   26183.77750324  .00000070  00000+0  16209-3 0  9998
2 45427  87.8885  17.9689 0001873  90.9978 269.1364 13.11414550304710
ONEWEB-0061             
1 45428U 20020E   26183.50424426 -.00000262  00000+0 -77600-3 0  9998
2 45428  87.8887  18.0079 0001811  89.1217 271.0118 13.11417477304637
ONEWEB-0081             
1 45429U 20020F   26183.79091789 -.00000493  00000+0 -14279-2 0  9990
2 45429  87.8882  17.9603 0001675  84.4945 275.6374 13.11414743304781
ONEWEB-0069             
1 45430U 20020G   26183.79276971 -.00000482  00000+0 -13971-2 0  9996
2 45430  87.8882  17.9632 0001642  86.3773 273.7542 13.11417546304712
ONEWEB-0031             
1 45431U 20020H   26183.82823024  .00000475  00000+0  13045-2 0  9990
2 45431  87.8877  17.9601 0001881  94.2255 265.9088 13.11417913304706
ONEWEB-0027             
1 45432U 20020J   26183.75212579  .00000044  00000+0  81152-4 0  9998
2 45432  87.9134   2.7686 0002308  98.8418 261.2975 13.17652779308407
ONEWEB-0064             
1 45433U 20020K   26183.82653286  .00000432  00000+0  11841-2 0  9998
2 45433  87.8882  17.9528 0001945  92.2848 267.8503 13.11419163304734
ONEWEB-0018             
1 45434U 20020L   26183.78229958 -.00000149  00000+0 -45704-3 0  9992
2 45434  87.8878  17.9611 0001461  94.0134 266.1161 13.11413980304670
ONEWEB-0083             
1 45435U 20020M   26183.54352726  .00000239  00000+0  63726-3 0  9999
2 45435  87.8883  18.0031 0001837  91.3275 268.8064 13.11413897304687
ONEWEB-0095             
1 45436U 20020N   26183.84023525  .00000553  00000+0  15253-2 0  9995
2 45436  87.8885  17.9526 0002513  83.7443 276.3971 13.11415335304726
ONEWEB-0092             
1 45437U 20020P   26183.79432012 -.00000442  00000+0 -12836-2 0  9998
2 45437  87.8886  17.9529 0001984  81.6720 278.4633 13.11411769304834
ONEWEB-0085             
1 45438U 20020Q   26183.77214258  .00000324  00000+0  87859-3 0  9992
2 45438  87.8878  17.9634 0001850  88.8459 271.2880 13.11414592304712
ONEWEB-0096             
1 45439U 20020R   26183.77396727  .00000205  00000+0  54341-3 0  9993
2 45439  87.8883  17.9600 0001961  88.0126 272.1227 13.11413617304709
ONEWEB-0037             
1 45440U 20020S   26183.80135220 -.00000420  00000+0 -12128-2 0  9995
2 45440  87.8896  17.9272 0001912  87.0220 273.1127 13.11914465304741
ONEWEB-0042             
1 45441U 20020T   26183.83996705  .00000534  00000+0  14708-2 0  9992
2 45441  87.8885  17.9430 0001786  85.7788 274.3544 13.11415364304716
ONEWEB-0098             
1 45442U 20020U   26183.45437072  .00000559  00000+0  15421-2 0  9998
2 45442  87.8882  18.0289 0001839  90.9972 269.1367 13.11417678304647
ONEWEB-0055             
1 45443U 20020V   26183.81452588 -.00000138  00000+0 -42498-3 0  9998
2 45443  87.8885  17.9561 0001866  91.1053 269.0288 13.11418172304668
ONEWEB-0093             
1 45444U 20020W   26183.79651771 -.00000573  00000+0 -16652-2 0  9996
2 45444  87.8884  17.9538 0001638  81.0762 279.0551 13.10891751304722
ONEWEB-0029             
1 45445U 20020X   26183.51639778  .00000263  00000+0  70567-3 0  9990
2 45445  87.8878  18.0165 0001609  84.4644 275.6667 13.11417107304661
ONEWEB-0068             
1 45446U 20020Y   26183.79417414 -.00000429  00000+0 -12477-2 0  9993
2 45446  87.8883  17.9571 0001681  86.2462 273.8858 13.11415866304645
